ONEWEB-0300             
1 49089U 21075Q   25126.91235161  .00000454  00000+0  12255-2 0  9998
2 49089  87.8867  71.4763 0001992  70.9939 289.1406 13.12441618182903
ONEWEB-0301             
1 49090U 21075R   25126.89612458 -.00000476  00000+0 -13592-2 0  9996
2 49090  87.8868  71.4853 0001991  69.0875 291.0466 13.12443374181271
ONEWEB-0302             
1 49091U 21075S   25126.88312890 -.00000346  00000+0 -99612-3 0  9997
2 49091  87.8867  71.4886 0001991  92.8955 267.2402 13.12441342181256
ONEWEB-0304             
1 49092U 21075T   25126.90983505  .00000008  00000+0 -12189-4 0  9997
2 49092  87.9043  86.7644 0002193  85.3904 274.7478 13.17650873181051
ONEWEB-0305             
1 49093U 21075U   25126.90308620 -.00000005  00000+0 -45563-4 0  9997
2 49093  87.9038  86.7442 0002483  85.6581 274.4834 13.17650312180104
ONEWEB-0308             
1 49094U 21075V   25126.87666215 -.00000341  00000+0 -98316-3 0  9997
2 49094  87.8869  71.4852 0001951  79.8794 280.2555 13.12443133181261
ONEWEB-0309             
1 49095U 21075W   25126.90646256  .00000003  00000+0 -26106-4 0  9998
2 49095  87.9041  86.7586 0001974  97.5418 262.5938 13.17648253181064
ONEWEB-0310             
1 49096U 21075X   25126.89125523  .00000037  00000+0  67087-4 0  9995
2 49096  87.8875  71.5202 0001926  84.8806 275.2542 13.12443536181898
